NORAD_CAT_ID,OBJECT_NAME,OBJECT_TYPE,EPOCH,MEAN_MOTION,ECCENTRICITY,INCLINATION,RA_OF_ASC_NODE,ARG_OF_PERICENTER,MEAN_ANOMALY,BSTAR,MEAN_MOTION_DOT,MEAN_MOTION_DDOT,TLE_LINE0,TLE_LINE1,TLE_LINE2,SEMIMAJOR_AXIS,PERIOD,APOGEE,PERIGEE,DECAYED
53805.0,STARLINK-4763,PAYLOAD,2024-04-07 09:33:06,15.0882956,0.0001506,53.2176,157.4746,98.8708,261.2455,-4.4438e-06,-3.59e-06,0.0,0 STARLINK-4763,1 53805U 22111AJ  24098.39799147 -.00000359  00000-0 -44438-5 0  9997,2 53805  53.2176 157.4746 0001506  98.8708 261.2455 15.08829560 87344,6917.912,95.438,540.819,538.735,0.0
53805.0,STARLINK-4763,PAYLOAD,2024-04-07 11:08:29,15.08828579,0.0001505,53.2174,157.1768,97.7558,262.3605,-1.5753e-05,-5.39e-06,0.0,0 STARLINK-4763,1 53805U 22111AJ  24098.46423283 -.00000539  00000-0 -15753-4 0  9997,2 53805  53.2174 157.1768 0001505  97.7558 262.3605 15.08828579 88162,6917.915,95.438,540.821,538.739,0.0
53805.0,STARLINK-4763,PAYLOAD,2024-04-07 20:40:48,15.08835641,0.0001499,53.2174,155.3914,89.8443,270.2721,6.1069e-05,6.84e-06,0.0,0 STARLINK-4763,1 53805U 22111AJ  24098.86166811  .00000684  00000-0  61069-4 0  9992,2 53805  53.2174 155.3914 0001499  89.8443 270.2721 15.08835641 88224,6917.894,95.438,540.796,538.722,0.0
53805.0,STARLINK-4763,PAYLOAD,2024-04-08 12:34:38,15.0885049,0.0001593,53.2178,152.4182,90.7218,269.3957,0.00016898,2.403e-05,0.0,0 STARLINK-4763,1 53805U 22111AJ  24099.52405650  .00002403  00000-0  16898-3 0  9993,2 53805  53.2178 152.4182 0001593  90.7218 269.3957 15.08850490 87519,6917.848,95.437,540.815,538.611,0.0
53805.0,STARLINK-4763,PAYLOAD,2024-04-08 20:31:33,15.08853062,0.0001525,53.2172,150.9303,87.6472,272.4695,0.00013125,1.802e-05,0.0,0 STARLINK-4763,1 53805U 22111AJ  24099.85525417  .00001802  00000-0  13125-3 0  9995,2 53805  53.2172 150.9303 0001525  87.6472 272.4695 15.08853062 88370,6917.84,95.437,540.76,538.65,0.0
53805.0,STARLINK-4763,PAYLOAD,2024-04-09 09:14:39,15.08850147,0.0001553,53.216,148.5508,83.5975,276.5194,0.00021454,3.129e-05,0.0,0 STARLINK-4763,1 53805U 22111AJ  24100.38517617  .00003129  00000-0  21454-3 0  9997,2 53805  53.2160 148.5508 0001553  83.5975 276.5194 15.08850147 87640,6917.849,95.437,540.789,538.64,0.0
53805.0,STARLINK-4763,PAYLOAD,2024-04-09 20:22:21,15.08848266,0.0001544,53.2154,146.4698,84.6864,275.4304,0.00012343,1.677e-05,0.0,0 STARLINK-4763,1 53805U 22111AJ  24100.84885516  .00001677  00000-0  12343-3 0  9997,2 53805  53.2154 146.4698 0001544  84.6864 275.4304 15.08848266 88527,6917.855,95.437,540.788,538.652,0.0
53805.0,STARLINK-4763,PAYLOAD,2024-04-10 02:43:53,15.0884688,0.0001795,53.2167,145.2809,83.8061,276.3136,-3.6939e-07,-2.94e-06,0.0,0 STARLINK-4763,1 53805U 22111AJ  24101.11381557 -.00000294  00000-0 -36939-6 0  9990,2 53805  53.2167 145.2809 0001795  83.8061 276.3136 15.08846880 87757,6917.859,95.437,540.966,538.483,0.0
53805.0,STARLINK-4763,PAYLOAD,2024-04-10 12:16:13,15.08842685,0.0001798,53.2182,143.4959,87.1296,272.9902,-5.348e-05,-1.139e-05,0.0,0 STARLINK-4763,1 53805U 22111AJ  24101.51126188 -.00001139  00000-0 -53480-4 0  9998,2 53805  53.2182 143.4959 0001798  87.1296 272.9902 15.08842685 87819,6917.872,95.437,540.981,538.493,0.0
53805.0,STARLINK-4763,PAYLOAD,2024-04-10 20:13:09,15.08836514,0.0001741,53.2173,142.008,89.08,271.0391,-0.00011201,-2.07e-05,0.0,0 STARLINK-4763,1 53805U 22111AJ  24101.84246687 -.00002070  00000-0 -11201-3 0  9990,2 53805  53.2173 142.0080 0001741  89.0800 271.0391 15.08836514 87860,6917.891,95.438,540.96,538.552,0.0
53805.0,STARLINK-4763,PAYLOAD,2024-04-11 08:56:14,15.08835224,0.0001594,53.216,139.6285,92.0227,268.0948,-7.8725e-05,-1.541e-05,0.0,0 STARLINK-4763,1 53805U 22111AJ  24102.37238672 -.00001541  00000-0 -78725-4 0  9991,2 53805  53.2160 139.6285 0001594  92.0227 268.0948 15.08835224 88758,6917.895,95.438,540.863,538.657,0.0
53805.0,STARLINK-4763,PAYLOAD,2024-04-11 20:03:55,15.08836024,0.0001645,53.2182,137.5454,97.0235,263.0945,1.3929e-05,-6.6e-07,0.0,0 STARLINK-4763,1 53805U 22111AJ  24102.83606467 -.00000066  00000-0  13929-4 0  9998,2 53805  53.2182 137.5454 0001645  97.0235 263.0945 15.08836024 88827,6917.893,95.438,540.896,538.62,0.0
53805.0,STARLINK-4763,PAYLOAD,2024-04-12 05:36:14,15.08841462,0.0001509,53.2164,135.7621,93.6129,266.5036,0.00014075,1.953e-05,0.0,0 STARLINK-4763,1 53805U 22111AJ  24103.23349794  .00001953  00000-0  14075-3 0  9997,2 53805  53.2164 135.7621 0001509  93.6129 266.5036 15.08841462 88074,6917.876,95.437,540.785,538.697,0.0
53805.0,STARLINK-4763,PAYLOAD,2024-04-12 08:47:00,15.08842457,0.0001483,53.2163,135.1673,91.7483,268.3679,0.0001401,1.943e-05,0.0,0 STARLINK-4763,1 53805U 22111AJ  24103.36597782  .00001943  00000-0  14010-3 0  9991,2 53805  53.2163 135.1673 0001483  91.7483 268.3679 15.08842457 88907,6917.873,95.437,540.764,538.712,0.0
53805.0,STARLINK-4763,PAYLOAD,2024-04-13 05:27:02,15.08829729,0.0001459,53.2159,131.3018,90.3706,269.7453,8.3925e-05,1.048e-05,0.0,0 STARLINK-4763,1 53805U 22111AJ  24104.22711100  .00001048  00000-0  83925-4 0  9997,2 53805  53.2159 131.3018 0001459  90.3706 269.7453 15.08829729 88226,6917.912,95.438,540.786,538.767,0.0
53805.0,STARLINK-4763,PAYLOAD,2024-04-13 07:02:25,15.08829659,0.0001447,53.2161,131.0046,90.1602,269.9556,8.2402e-05,1.023e-05,0.0,0 STARLINK-4763,1 53805U 22111AJ  24104.29335155  .00001023  00000-0  82402-4 0  9998,2 53805  53.2161 131.0046 0001447  90.1602 269.9556 15.08829659 89046,6917.912,95.438,540.778,538.776,0.0
53805.0,STARLINK-4763,PAYLOAD,2024-04-14 00:31:39,15.08842063,0.0001549,53.2163,127.7323,95.833,264.2839,6.7042e-08,-2.87e-06,0.0,0 STARLINK-4763,1 53805U 22111AJ  24105.02198793 -.00000287  00000-0  67042-7 0  9993,2 53805  53.2163 127.7323 0001549  95.8330 264.2839 15.08842063 88349,6917.874,95.437,540.811,538.668,0.0
53805.0,STARLINK-4763,PAYLOAD,2024-04-14 06:53:11,15.08845793,0.0001529,53.2164,126.5437,93.3814,266.7354,3.0267e-05,1.94e-06,0.0,0 STARLINK-4763,1 53805U 22111AJ  24105.28694401  .00000194  00000-0  30267-4 0  9990,2 53805  53.2164 126.5437 0001529  93.3814 266.7354 15.08845793 89197,6917.863,95.437,540.785,538.67,0.0
53805.0,STARLINK-4763,PAYLOAD,2024-04-15 05:08:36,15.08832191,0.0001638,53.2167,122.3822,105.9981,254.1191,3.5071e-05,2.7e-06,0.0,0 STARLINK-4763,1 53805U 22111AJ  24106.21431471  .00000270  00000-0  35071-4 0  9993,2 53805  53.2167 122.3822 0001638 105.9981 254.1191 15.08832191 88522,6917.904,95.438,540.902,538.636,0.0
53805.0,STARLINK-4763,PAYLOAD,2024-04-15 06:44:01,15.08816192,0.0001332,53.2169,122.0841,87.5138,272.6007,-9.5683e-05,-1.809e-05,0.0,0 STARLINK-4763,1 53805U 22111AJ  24106.28056803 -.00001809  00000-0 -95683-4 0  9998,2 53805  53.2169 122.0841 0001332  87.5138 272.6007 15.08816192 88537,6917.953,95.439,540.74,538.897,0.0
53805.0,STARLINK-4763,PAYLOAD,2024-04-16 09:45:33,15.088438,0.0001654,53.2163,117.031,101.0102,259.1076,0.00017098,2.434e-05,0.0,0 STARLINK-4763,1 53805U 22111AJ  24107.40664251  .00002434  00000-0  17098-3 0  9991,2 53805  53.2163 117.0310 0001654 101.0102 259.1076 15.08843800 88707,6917.869,95.437,540.878,538.59,0.0
53805.0,STARLINK-4763,PAYLOAD,2024-04-17 04:50:10,15.08850204,0.000163,53.2168,113.4609,72.0218,288.0952,0.00051221,7.875e-05,0.0,0 STARLINK-4763,1 53805U 22111AJ  24108.20150708  .00007875  00000-0  51221-3 0  9997,2 53805  53.2168 113.4609 0001630  72.0218 288.0952 15.08850204 88825,6917.849,95.437,540.842,538.587,0.0
53805.0,STARLINK-4763,PAYLOAD,2024-04-17 09:36:19,15.08870968,0.0001592,53.216,112.5676,82.1031,278.0141,0.00087271,0.0001364,0.0,0 STARLINK-4763,1 53805U 22111AJ  24108.40023009  .00013640  00000-0  87271-3 0  9993,2 53805  53.2160 112.5676 0001592  82.1031 278.0141 15.08870968 89664,6917.786,95.436,540.752,538.549,0.0
53805.0,STARLINK-4763,PAYLOAD,2024-04-18 04:40:58,15.0883923,0.0001375,53.2169,109.0001,74.1922,285.9221,-4.3262e-05,-9.76e-06,0.0,0 STARLINK-4763,1 53805U 22111AJ  24109.19512331 -.00000976  00000-0 -43262-4 0  9994,2 53805  53.2169 109.0001 0001375  74.1922 285.9221 15.08839230 88971,6917.883,95.438,540.699,538.797,0.0
53805.0,STARLINK-4763,PAYLOAD,2024-04-18 06:16:21,15.08849531,0.0001366,53.2166,108.6997,94.3809,265.7339,-9.3865e-05,-1.782e-05,0.0,0 STARLINK-4763,1 53805U 22111AJ  24109.26135815 -.00001782  00000-0 -93865-4 0  9990,2 53805  53.2166 108.6997 0001366  94.3809 265.7339 15.08849531 88987,6917.851,95.437,540.661,538.771,0.0
53805.0,STARLINK-4763,PAYLOAD,2024-04-19 04:31:44,15.088505,0.0001347,53.2168,104.5369,87.6476,272.467,-1.464e-05,-5.21e-06,0.0,0 STARLINK-4763,1 53805U 22111AJ  24110.18871173 -.00000521  00000-0 -14640-4 0  9991,2 53805  53.2168 104.5369 0001347  87.6476 272.4670 15.08850500 89938,6917.848,95.437,540.645,538.781,0.0
53805.0,STARLINK-4763,PAYLOAD,2024-04-20 04:22:31,15.08847135,0.0001387,53.2167,100.0777,70.3882,289.726,0.00027217,4.047e-05,0.0,0 STARLINK-4763,1 53805U 22111AJ  24111.18231478  .00004047  00000-0  27217-3 0  9998,2 53805  53.2167 100.0777 0001387  70.3882 289.7260 15.08847135 89278,6917.859,95.437,540.683,538.764,0.0
53805.0,STARLINK-4763,PAYLOAD,2024-04-20 05:57:55,15.08849689,0.0001403,53.2173,99.7801,79.9608,280.1542,0.0003084,4.625e-05,0.0,0 STARLINK-4763,1 53805U 22111AJ  24111.24855328  .00004625  00000-0  30840-3 0  9999,2 53805  53.2173  99.7801 0001403  79.9608 280.1542 15.08849689 90093,6917.851,95.437,540.686,538.745,0.0
53805.0,STARLINK-4763,PAYLOAD,2024-04-21 04:13:20,15.08822631,0.0001574,53.2175,95.6195,108.6187,251.4976,-0.00016459,-2.905e-05,0.0,0 STARLINK-4763,1 53805U 22111AJ  24112.17592870 -.00002905  00000-0 -16459-3 0  9993,2 53805  53.2175  95.6195 0001574 108.6187 251.4976 15.08822631 89422,6917.933,95.439,540.887,538.71,0.0
53805.0,STARLINK-4763,PAYLOAD,2024-04-22 04:04:06,15.08857516,0.000188,53.2178,91.1578,108.4946,251.625,0.00053134,8.182e-05,0.0,0 STARLINK-4763,1 53805U 22111AJ  24113.16951980  .00008182  00000-0  53134-3 0  9996,2 53805  53.2178  91.1578 0001880 108.4946 251.6250 15.08857516 89575,6917.827,95.436,540.992,538.391,0.0
